[{"OBJECT_NAME":"CHUANGXIN 20B (CX-20B)","OBJECT_ID":"2023-181B","EPOCH":"2026-03-09T23:40:32.768832","MEAN_MOTION":13.41480162,"ECCENTRICITY":0.00117667,"INCLINATION":49.9613,"RA_OF_ASC_NODE":330.5454,"ARG_OF_PERICENTER":330.7939,"MEAN_ANOMALY":29.2279,"EPHEMERIS_TYPE":0,"CLASSIFICATION_TYPE":"U","NORAD_CAT_ID":58426,"ELEMENT_SET_NO":999,"REV_AT_EPOCH":11242,"BSTAR":0.00016098845,"MEAN_MOTION_DOT":-3.8e-7,"MEAN_MOTION_DDOT":0},{"OBJECT_NAME":"HJS-7B","OBJECT_ID":"2025-209B","EPOCH":"2026-03-09T21:59:22.593408","MEAN_MOTION":13.41451936,"ECCENTRICITY":8.722e-5,"INCLINATION":50.0014,"RA_OF_ASC_NODE":2.9752,"ARG_OF_PERICENTER":190.3552,"MEAN_ANOMALY":169.7307,"EPHEMERIS_TYPE":0,"CLASSIFICATION_TYPE":"U","NORAD_CAT_ID":65618,"ELEMENT_SET_NO":999,"REV_AT_EPOCH":2431,"BSTAR":0.00014651789,"MEAN_MOTION_DOT":-4.6e-7,"MEAN_MOTION_DDOT":0}]
